-- 插入卫星数据
INSERT INTO t_satellite (
    satellite_name_cn, satellite_name_en, satellite_code, cospar_id, norad_id,
    orbit_type, semi_major_axis, eccentricity, inclination, right_ascension,
    argument_of_perigee, mean_anomaly, epoch_time, tle_line1, tle_line2,
    launch_time, status, description, tags
) VALUES 
-- 高分三号卫星
(
    '高分三号卫星', 'GaoFen-3', 'GF-3', '2016-052A', '41727',
    'LEO', 7155.67, 0.0001473, 98.4172, 157.6933,
    98.8843, 261.2617, '2023-01-01 12:00:00',
    '1 41727U 16052A   23090.88983107  .00000244  00000+0  32045-4 0  9998',
    '2 41727  98.4172 157.6933 0001473  98.8843 261.2617 14.80827531348523',
    '2016-08-10 00:00:00', '在轨运行',
    'C波段多极化合成孔径雷达卫星，具备全天时、全天候对地观测能力',
    JSON_ARRAY('遥感卫星', 'SAR', '雷达成像')
),
-- 风云四号A星
(
    '风云四号A星', 'FengYun-4A', 'FY-4A', '2016-072A', '41882',
    'GEO', 42164.0, 0.0002156, 0.1024, 86.5743,
    95.2317, 264.9072, '2023-01-01 12:00:00',
    '1 41882U 16072A   23090.12345678  .00000106  00000+0  00000+0 0  9991',
    '2 41882   0.1024  86.5743 0002156  95.2317 264.9072  1.00273791 23456',
    '2016-12-11 00:00:00', '在轨运行',
    '新一代地球静止轨道气象卫星，可提供更高时空分辨率的气象观测',
    JSON_ARRAY('气象卫星', '静止轨道', '光学成像')
),
-- 北斗三号G1卫星
(
    '北斗三号G1卫星', 'BeiDou-3 G1', 'BD-3 G1', '2018-025A', '43245',
    'GEO', 42164.0, 0.0003102, 0.7391, 120.5213,
    177.8562, 182.1438, '2023-01-01 12:00:00',
    '1 43245U 18025A   23090.50000000 -.00000112  00000+0  00000+0 0  9990',
    '2 43245   0.7391 120.5213 0003102 177.8562 182.1438  1.00271376 18123',
    '2018-03-29 00:00:00', '在轨运行',
    '北斗全球卫星导航系统的地球静止轨道卫星',
    JSON_ARRAY('导航卫星', '北斗系统', 'GEO')
),
-- 中星6B卫星
(
    '中星6B卫星', 'ChinaSat-6B', 'CS-6B', '2007-031A', '31800',
    'GEO', 42164.0, 0.0001891, 0.0486, 92.8751,
    268.1249, 91.8751, '2023-01-01 12:00:00',
    '1 31800U 07031A   23090.25000000 -.00000113  00000+0  00000+0 0  9993',
    '2 31800   0.0486  92.8751 0001891 268.1249  91.8751  1.00271530 57234',
    '2007-07-05 00:00:00', '在轨运行',
    '通信广播卫星，提供电视广播、通信等服务',
    JSON_ARRAY('通信卫星', '广播卫星', 'GEO')
),
-- 资源一号02D卫星
(
    '资源一号02D卫星', 'ZiYuan-1 02D', 'ZY-1 02D', '2019-072A', '44907',
    'SSO', 7155.13, 0.0001618, 97.4215, 195.2387,
    88.7613, 271.2387, '2023-01-01 12:00:00',
    '1 44907U 19072A   23090.37654321  .00000286  00000+0  35951-4 0  9994',
    '2 44907  97.4215 195.2387 0001618  88.7613 271.2387 14.80825461 15673',
    '2019-09-12 00:00:00', '在轨运行',
    '陆地资源勘查卫星，具备高分辨率多光谱成像能力',
    JSON_ARRAY('遥感卫星', '光学成像', '资源探测')
);

-- 为这些卫星添加对应的载荷
INSERT INTO t_payload (
    satellite_id, payload_name, payload_type, payload_code,
    status, description
) VALUES 
-- 高分三号载荷
(1, 'C-SAR', 'SAR雷达', 'GF3-SAR-01',
 '正常工作', 'C波段合成孔径雷达，分辨率1-500米可调'),
-- 风云四号A星载荷
(2, 'AGRI', '成像仪', 'FY4A-AGRI-01',
 '正常工作', '先进地球辐射成像仪，可见光红外多光谱扫描'),
(2, 'LMI', '闪电成像仪', 'FY4A-LMI-01',
 '正常工作', '闪电成像仪，监测闪电活动'),
-- 北斗三号G1载荷
(3, 'NAV-Signal', '导航信号发生器', 'BD3-NAV-01',
 '正常工作', '导航信号发生与传输设备'),
-- 中星6B载荷
(4, 'C-Band-Transponder', 'C频段转发器', 'CS6B-TRANS-01',
 '正常工作', 'C频段通信转发器，用于电视广播和通信'),
-- 资源一号02D载荷
(5, 'PMS-2', '全色多光谱相机', 'ZY1-PMS2-01',
 '正常工作', '全色分辨率2米，多光谱分辨率8米');

-- 插入地面站数据
INSERT INTO t_ground_station (
    station_name, station_code, station_type, location,
    latitude, longitude, altitude, status, description
) VALUES
-- 北京及周边地区地面站
('北京密云地面站', 'BJ-MY-01', '测控站', '北京市密云区不老屯镇',
 40.4869, 116.8531, 287.5, '正常运行', '北京地区主要航天测控站，具备S/X/Ka频段测控能力'),
('北京延庆地面站', 'BJ-YQ-01', '数据接收站', '北京市延庆区张山营镇',
 40.4571, 115.9667, 486.3, '正常运行', '支持气象卫星和遥感卫星数据接收'),
('天津武清地面站', 'TJ-WQ-01', '测控站', '天津市武清区下朱庄街道',
 39.3842, 117.0456, 12.8, '正常运行', '支持近地轨道卫星测控任务'),

-- 西北地区地面站
('酒泉卫星测控中心', 'JQ-ZX-01', '综合站', '甘肃省酒泉市肃州区',
 40.9575, 100.4511, 1422.6, '正常运行', '航天发射场配套测控中心，具备全频段测控能力'),
('喀什地面站', 'KS-GD-01', '数据接收站', '新疆喀什地区喀什市',
 39.4738, 75.9890, 1289.4, '正常运行', '西部地区重要的遥感卫星数据接收站'),
('乌鲁木齐地面站', 'WLM-01', '测控站', '新疆乌鲁木齐市米东区',
 43.8231, 87.6126, 918.7, '正常运行', '支持中亚地区卫星测控任务'),

-- 西南地区地面站
('西昌卫星测控中心', 'XC-ZX-01', '综合站', '四川省西昌市',
 27.8910, 102.2731, 1548.5, '正常运行', '具备地球静止轨道卫星发射测控能力'),
('昆明地面站', 'KM-GD-01', '数据接收站', '云南省昆明市安宁市',
 24.8595, 102.4666, 1895.3, '正常运行', '西南地区主要遥感卫星数据接收站'),
('拉萨地面站', 'LS-GD-01', '测控站', '西藏自治区拉萨市城关区',
 29.6512, 91.1410, 3656.8, '正常运行', '高原测控站，覆盖青藏高原区域'),

-- 华南地区地面站
('三亚卫星地面站', 'SY-GD-01', '综合站', '海南省三亚市崖州区',
 18.2526, 109.5117, 23.4, '正常运行', '具备海洋卫星和气象卫星接收能力'),
('湛江地面站', 'ZJ-GD-01', '测控站', '广东省湛江市坡头区',
 21.2056, 110.4551, 32.1, '正常运行', '支持南海区域卫星测控任务'),
('福州地面站', 'FZ-GD-01', '数据接收站', '福建省福州市长乐区',
 25.9744, 119.5177, 15.8, '正常运行', '东南沿海重要的遥感数据接收站'),

-- 华东地区地面站
('上海佘山地面站', 'SH-SS-01', '综合站', '上海市松江区佘山镇',
 31.0967, 121.1863, 98.3, '正常运行', '华东地区主要的卫星测控中心'),
('南京紫金山站', 'NJ-ZJS-01', '测控站', '江苏省南京市紫金山',
 32.0673, 118.8243, 267.4, '正常运行', '具备光学和雷达测控能力'),
('青岛地面站', 'QD-GD-01', '数据接收站', '山东省青岛市崂山区',
 36.1075, 120.4786, 235.6, '正常运行', '支持海洋卫星数据接收任务'),

-- 东北地区地面站
('长春地面站', 'CC-GD-01', '综合站', '吉林省长春市净月区',
 43.8256, 125.4233, 236.8, '正常运行', '东北地区主要的卫星测控中心'),
('哈尔滨地面站', 'HEB-GD-01', '数据接收站', '黑龙江省哈尔滨市松北区',
 45.8019, 126.5347, 142.3, '正常运行', '支持极轨卫星数据接收任务'),
('沈阳地面站', 'SY-GD-02', '测控站', '辽宁省沈阳市浑南区',
 41.7381, 123.4442, 48.9, '正常运行', '东北地区重要的测控基地'),

-- 中部地区地面站
('武汉地面站', 'WH-GD-01', '综合站', '湖北省武汉市江夏区',
 30.4152, 114.4337, 27.4, '正常运行', '中部地区主要的卫星地面应用中心'),
('西安卫星测控中心', 'XA-ZX-01', '测控站', '陕西省西安市长安区',
 34.1484, 108.9369, 412.6, '正常运行', '具备全频段测控和数据接收能力'),
('太原卫星地面站', 'TY-GD-01', '综合站', '山西省太原市清徐县',
 37.7485, 112.3586, 778.5, '正常运行', '支持发射场测控和卫星数据接收任务');

-- 为部分地面站添加设备数据
INSERT INTO t_ground_equipment (
    ground_station_id, equipment_name, equipment_code, equipment_type,
    min_frequency, max_frequency, frequency_band, polarization,
    gain, status, description
) VALUES
-- 北京密云地面站设备
(1, '13.5米标准S频段天线', 'BJ-MY-01-S01', 'S频段天线',
 2200.0, 2300.0, 'S', '左旋圆极化', 45.5, '正常运行',
 'S频段遥测遥控天线，用于近地轨道卫星测控'),
(1, '11米标准X频段天线', 'BJ-MY-01-X01', 'X频段天线',
 8025.0, 8400.0, 'X', '双极化', 56.8, '正常运行',
 'X频段高速数据接收天线'),

-- 酒泉卫星测控中心设备
(4, '18米标准Ka频段天线', 'JQ-ZX-01-Ka01', 'Ka频段天线',
 25500.0, 27000.0, 'Ka', '双极化', 65.3, '正常运行',
 'Ka频段高通量通信天线'),
(4, '15米标准C频段天线', 'JQ-ZX-01-C01', 'C频段天线',
 3700.0, 4200.0, 'C', '线极化', 52.4, '正常运行',
 'C频段测控和数据接收天线'),

-- 三亚卫星地面站设备
(10, '12米L频段相控阵天线', 'SY-GD-01-L01', 'L频段天线',
 1525.0, 1665.0, 'L', '右旋圆极化', 42.7, '正常运行',
 'L频段导航增强信号接收天线'),
(10, '7.3米S频段天线', 'SY-GD-01-S01', 'S频段天线',
 2200.0, 2300.0, 'S', '左旋圆极化', 41.2, '正常运行',
 'S频段遥测接收天线'),

-- 上海佘山地面站设备
(13, '13米X/Ka双频段天线', 'SH-SS-01-XKa01', 'X/Ka双频段天线',
 8025.0, 27000.0, 'X/Ka', '双极化', 58.9, '正常运行',
 'X/Ka双频段高速数据接收天线'),
(13, '9米C频段天线', 'SH-SS-01-C01', 'C频段天线',
 3700.0, 4200.0, 'C', '线极化', 48.6, '正常运行',
 'C频段通信和数据接收天线'); 